OBJECT_NAME,OBJECT_ID,EPOCH,MEAN_MOTION,ECCENTRICITY,INCLINATION,RA_OF_ASC_NODE,ARG_OF_PERICENTER,MEAN_ANOMALY,EPHEMERIS_TYPE,CLASSIFICATION_TYPE,NORAD_CAT_ID,ELEMENT_SET_NO,REV_AT_EPOCH,BSTAR,MEAN_MOTION_DOT,MEAN_MOTION_DDOT
KUZGTU 1 (RS47S),2023-091AV,2026-06-06T19:54:50.970240,15.29620818,.0012289,97.5063,222.2061,129.8232,230.4091,0,U,57217,999,16279,.46412E-3,.13283E-3,0
SONATE-2,2024-043Q,2026-06-06T16:06:58.344768,15.57931629,.0006579,97.5528,307.4302,232.3278,127.7381,0,U,59112,999,12625,.61269E-3,.45896E-3,0
MESAT1,2024-125G,2026-06-06T20:39:01.240992,15.62093055,.0008563,97.2307,15.1151,245.2097,114.8271,0,U,60209,999,10795,.6787E-3,.59715E-3,0
OOV-CUBE (TUBSAT-30),2024-128F,2026-06-06T16:12:20.918304,15.02727815,.0045953,61.9952,262.2263,131.4155,229.0900,0,U,60240,999,10453,.23435E-3,.3003E-4,0
COLIBRI-S (RS67S),2024-199M,2026-06-06T20:17:04.440192,15.47295228,.000682,97.3005,31.6076,327.3112,32.7715,0,U,61746,999,13581,.46881E-3,.23878E-3,0
HORS 3 (RS81S),2024-199U,2026-06-06T20:31:25.734144,15.54258803,.0004581,97.2989,33.4950,337.1512,22.9538,0,U,61753,999,13595,.62139E-3,.4061E-3,0
HORS 4 (RS82S),2024-199V,2026-06-06T20:18:23.518656,15.58716213,.0003355,97.2936,34.6223,328.0845,32.0207,0,U,61754,999,13603,.63204E-3,.48749E-3,0
ARCTICSAT 1 (RS74S),2024-199AD,2026-06-06T20:28:01.500960,16.05424423,.0007027,97.2845,41.2700,201.5752,158.5234,0,U,61762,999,13646,.13403E-2,.929256E-2,.46008E-3
SIT-2086,2024-199AF,2026-06-06T19:42:01.000224,15.52365496,.0004663,97.2946,33.9725,309.3316,50.7524,0,U,61764,999,13282,.67685E-3,.41325E-3,0
HYPERVIEW 1G (RS66S),2024-199AP,2026-06-06T19:55:38.803872,15.73200059,.0002051,97.2892,37.0456,298.1412,61.9645,0,U,61772,999,13304,.10213E-2,.142125E-2,0
ALTAIR (RS65S),2024-199AW,2026-06-06T19:48:07.123680,15.36816497,.0012199,97.3039,27.2451,351.9424,8.1623,0,U,61779,999,13552,.36651E-3,.13145E-3,0
ASRTU-1 (AO-123),2024-199AY,2026-06-06T20:51:39.748320,15.35526101,.0013411,97.3012,26.6333,353.6877,6.4195,0,U,61781,999,13234,.25822E-3,.8861E-4,0
SAMSAT-IONOSPHERE (RS75S),2024-199BB,2026-06-06T20:12:18.929664,15.56720259,.0006434,97.2958,33.4921,330.0290,30.0596,0,U,61784,999,13595,.66474E-3,.47619E-3,0
RTU MIREA 1 (RS51S),2024-199BC,2026-06-06T21:19:28.913376,15.59966823,.0005943,97.2948,34.3201,324.2282,35.8576,0,U,61785,999,13286,.77529E-3,.62858E-3,0
TEVEL2-4,2025-052D,2026-06-05T23:10:16.621824,15.34208415,.00042844,97.3920,53.3411,125.1509,235.0135,0,U,63213,999,6839,.78941234E-3,.26125E-3,0
TEVEL2-5,2025-052E,2026-06-06T10:35:31.226496,15.34062158,.00042956,97.3910,53.7683,125.4892,234.6752,0,U,63214,999,6846,.73468546E-3,.2419E-3,0
TEVEL2-6,2025-052F,2026-06-06T10:52:54.721632,15.34024635,.00043765,97.3913,53.7648,125.1583,235.0071,0,U,63215,999,6846,.74778507E-3,.24595E-3,0
TEVEL2-1,2025-052H,2026-06-05T10:25:58.838592,15.33457579,.00040057,97.3883,52.3839,136.2880,223.8680,0,U,63217,999,6829,.52119055E-3,.16797E-3,0
TEVEL2-3,2025-052J,2026-06-05T22:50:33.493920,15.33537694,.00042248,97.3885,52.9211,137.0459,223.1114,0,U,63218,999,6837,.78363705E-3,.25388E-3,0
TEVEL2-2,2025-052K,2026-06-05T22:58:14.499264,15.33493507,.00040281,97.3886,52.9080,136.8186,223.3373,0,U,63219,999,6837,.73355797E-3,.23721E-3,0
TEVEL2-9,2025-052AD,2026-06-06T10:37:39.906336,15.31566572,.0006696,97.3947,52.7914,161.4993,198.6493,0,U,63237,999,6838,.73371453E-3,.22342E-3,0
TEVEL2-7,2025-052AE,2026-06-05T10:28:01.709760,15.31236048,.00066809,97.3949,51.7085,165.6962,194.4470,0,U,63238,999,6822,.49200242E-3,.14789E-3,0
TEVEL2-8,2025-052AF,2026-06-06T14:53:34.041696,15.31268208,.0006811,97.3947,52.8668,162.3481,197.7998,0,U,63239,999,6840,.62937E-3,.18969E-3,0
INNOSAT 16 (RS92S7),2025-155C,2026-06-06T20:01:19.797888,15.25347074,.000936,97.4560,124.9964,213.2681,146.7969,0,U,64878,999,7909,.26004E-3,.6491E-4,0
GEOSCAN 6 (RS92S6),2025-155D,2026-06-06T20:21:49.917024,15.29956969,.0006961,97.4555,126.3623,198.0280,162.0715,0,U,64879,999,7918,.40817E-3,.11775E-3,0
GEOSCAN 1 (RS92S1),2025-155E,2026-06-06T20:31:04.249056,15.30537521,.0006902,97.4551,126.5078,197.9799,162.1198,0,U,64880,999,7919,.44063E-3,.12949E-3,0
239ALFEROV (RS61S),2025-155F,2026-06-06T20:08:18.137184,15.32663391,.0006557,97.4553,127.0191,194.2537,165.8521,0,U,64881,999,7922,.52812E-3,.16607E-3,0
GEOSCAN 2 (RS92S2),2025-155Q,2026-06-06T20:24:36.730368,15.30809405,.0006775,97.4550,126.6517,182.5703,177.5504,0,U,64890,999,7920,.42348E-3,.12547E-3,0
GEOSCAN 5 (RS92S5),2025-155R,2026-06-06T19:55:35.391072,15.32981476,.0005211,97.4544,127.1438,197.3163,162.7902,0,U,64891,999,7923,.50296E-3,.15965E-3,0
GEOSCAN 4 (RS92S4),2025-155S,2026-06-06T19:34:17.681952,15.33129416,.0005266,97.4548,127.1744,198.0464,162.0592,0,U,64892,999,7923,.52788E-3,.16841E-3,0
