KUZGTU 1 (RS47S)        
1 57217U 23091AV  26157.82975660  .00013283  00000+0  46412-3 0  9997
2 57217  97.5063 222.2061 0012289 129.8232 230.4091 15.29620818162794
SONATE-2                
1 59112U 24043Q   26157.67150862  .00045896  00000+0  61269-3 0  9995
2 59112  97.5528 307.4302 0006579 232.3278 127.7381 15.57931629126252
MESAT1                  
1 60209U 24125G   26157.86043103  .00059715  00000+0  67870-3 0  9994
2 60209  97.2307  15.1151 0008563 245.2097 114.8271 15.62093055107954
OOV-CUBE (TUBSAT-30)    
1 60240U 24128F   26157.67524211  .00003003  00000+0  23435-3 0  9993
2 60240  61.9952 262.2263 0045953 131.4155 229.0900 15.02727815104538
COLIBRI-S (RS67S)       
1 61746U 24199M   26157.84519028  .00023878  00000+0  46881-3 0  9994
2 61746  97.3005  31.6076 0006820 327.3112  32.7715 15.47295228135816
HORS 3 (RS81S)          
1 61753U 24199U   26157.85515896  .00040610  00000+0  62139-3 0  9999
2 61753  97.2989  33.4950 0004581 337.1512  22.9538 15.54258803135955
HORS 4 (RS82S)          
1 61754U 24199V   26157.84610554  .00048749  00000+0  63204-3 0  9991
2 61754  97.2936  34.6223 0003355 328.0845  32.0207 15.58716213136033
ARCTICSAT 1 (RS74S)     
1 61762U 24199AD  26157.85279515  .00929256  46008-3  13403-2 0  9997
2 61762  97.2845  41.2700 0007027 201.5752 158.5234 16.05424423136460
SIT-2086                
1 61764U 24199AF  26157.82084491  .00041325  00000+0  67685-3 0  9995
2 61764  97.2946  33.9725 0004663 309.3316  50.7524 15.52365496132821
HYPERVIEW 1G (RS66S)    
1 61772U 24199AP  26157.83031023  .00142125  00000+0  10213-2 0  9992
2 61772  97.2892  37.0456 0002051 298.1412  61.9645 15.73200059133046
ALTAIR (RS65S)          
1 61779U 24199AW  26157.82508245  .00013145  00000+0  36651-3 0  9997
2 61779  97.3039  27.2451 0012199 351.9424   8.1623 15.36816497135520
ASRTU-1 (AO-123)        
1 61781U 24199AY  26157.86921005  .00008861  00000+0  25822-3 0  9994
2 61781  97.3012  26.6333 0013411 353.6877   6.4195 15.35526101132346
SAMSAT-IONOSPHERE (RS7*)
1 61784U 24199BB  26157.84188576  .00047619  00000+0  66474-3 0  9995
2 61784  97.2958  33.4921 0006434 330.0290  30.0596 15.56720259135952
RTU MIREA 1 (RS51S)     
1 61785U 24199BC  26157.88852909  .00062858  00000+0  77529-3 0  9993
2 61785  97.2948  34.3201 0005943 324.2282  35.8576 15.59966823132863
TEVEL2-4                
1 63213U 25052D   26156.96547016  .00026125  00000+0  78941-3 0  9994
2 63213  97.3920  53.3411 0004284 125.1509 235.0135 15.34208415 68393
TEVEL2-5                
1 63214U 25052E   26157.44133364  .00024190  00000+0  73469-3 0  9996
2 63214  97.3910  53.7683 0004295 125.4892 234.6752 15.34062158 68468
TEVEL2-6                
1 63215U 25052F   26157.45341113  .00024595  00000+0  74779-3 0  9995
2 63215  97.3913  53.7648 0004376 125.1583 235.0071 15.34024635 68464
TEVEL2-1                
1 63217U 25052H   26156.43470878  .00016797  00000+0  52119-3 0  9994
2 63217  97.3883  52.3839 0004005 136.2880 223.8680 15.33457579 68299
TEVEL2-3                
1 63218U 25052J   26156.95177655  .00025388  00000+0  78364-3 0  9995
2 63218  97.3885  52.9211 0004224 137.0459 223.1114 15.33537694 68377
TEVEL2-2                
1 63219U 25052K   26156.95711226  .00023721  00000+0  73356-3 0  9999
2 63219  97.3886  52.9080 0004028 136.8186 223.3373 15.33493507 68372
TEVEL2-9                
1 63237U 25052AD  26157.44282299  .00022342  00000+0  73371-3 0  9992
2 63237  97.3947  52.7914 0006696 161.4993 198.6493 15.31566572 68386
TEVEL2-7                
1 63238U 25052AE  26156.43613090  .00014789  00000+0  49200-3 0  9998
2 63238  97.3949  51.7085 0006680 165.6962 194.4470 15.31236048 68226
TEVEL2-8                
1 63239U 25052AF  26157.62053289  .00018969  00000+0  62937-3 0  9995
2 63239  97.3947  52.8668 0006811 162.3481 197.7998 15.31268208 68404
INNOSAT 16 (RS92S7)     
1 64878U 25155C   26157.83425692  .00006491  00000+0  26004-3 0  9995
2 64878  97.4560 124.9964 0009360 213.2681 146.7969 15.25347074 79097
GEOSCAN 6 (RS92S6)      
1 64879U 25155D   26157.84849441  .00011775  00000+0  40817-3 0  9998
2 64879  97.4555 126.3623 0006961 198.0280 162.0715 15.29956969 79182
GEOSCAN 1 (RS92S1)      
1 64880U 25155E   26157.85491029  .00012949  00000+0  44063-3 0  9997
2 64880  97.4551 126.5078 0006902 197.9799 162.1198 15.30537521 79192
239ALFEROV (RS61S)      
1 64881U 25155F   26157.83909881  .00016607  00000+0  52812-3 0  9992
2 64881  97.4553 127.0191 0006557 194.2537 165.8521 15.32663391 79224
GEOSCAN 2 (RS92S2)      
1 64890U 25155Q   26157.85042512  .00012547  00000+0  42348-3 0  9995
2 64890  97.4550 126.6517 0006775 182.5703 177.5504 15.30809405 79200
GEOSCAN 5 (RS92S5)      
1 64891U 25155R   26157.83027073  .00015965  00000+0  50296-3 0  9997
2 64891  97.4544 127.1438 0005211 197.3163 162.7902 15.32981476 79232
GEOSCAN 4 (RS92S4)      
1 64892U 25155S   26157.81548243  .00016841  00000+0  52788-3 0  9995
2 64892  97.4548 127.1744 0005266 198.0464 162.0592 15.33129416 79236
